[{"OBJECT_NAME":"RSW-01","OBJECT_ID":"2021-076A","EPOCH":"2026-03-09T22:50:26.263104","MEAN_MOTION":13.42854538,"ECCENTRICITY":0.00146776,"INCLINATION":86.4145,"RA_OF_ASC_NODE":193.2211,"ARG_OF_PERICENTER":348.7522,"MEAN_ANOMALY":11.3292,"EPHEMERIS_TYPE":0,"CLASSIFICATION_TYPE":"U","NORAD_CAT_ID":49112,"ELEMENT_SET_NO":999,"REV_AT_EPOCH":22256,"BSTAR":-5.297471e-5,"MEAN_MOTION_DOT":-1.5e-7,"MEAN_MOTION_DDOT":0},{"OBJECT_NAME":"COSMOS 2251 DEB","OBJECT_ID":"1993-036AYU","EPOCH":"2026-02-09T22:36:16.665120","MEAN_MOTION":13.8665694,"ECCENTRICITY":0.0260465,"INCLINATION":74.1017,"RA_OF_ASC_NODE":131.5377,"ARG_OF_PERICENTER":191.0318,"MEAN_ANOMALY":168.5033,"EPHEMERIS_TYPE":0,"CLASSIFICATION_TYPE":"U","NORAD_CAT_ID":36367,"ELEMENT_SET_NO":999,"REV_AT_EPOCH":58350,"BSTAR":0.00099798,"MEAN_MOTION_DOT":1.494e-5,"MEAN_MOTION_DDOT":0}]
